0142P         2021 05 12.5727  2.517178  0.496771  174.0321  175.9725   12.2504  20231204   8.5  6.0  142P/Ge-Wang                                             MPEC 2021-Y10
0143P         2027 02 15.1668  2.465991  0.420818  320.6568  244.3061    4.8449  20231204  13.5  2.0  143P/Kowal-Mrkos                                         MPEC 2023-W26
0144P         2024 01 25.7680  1.398849  0.634956  216.3205  242.9250    3.9318  20231204   8.5  8.0  144P/Kushida                                             MPEC 2023-W26
0145P         2026 01 31.7163  1.890815  0.542604   10.2948   26.8179   11.2784  20231204  13.5  4.0  145P/Shoemaker-Levy                                      MPC108598
0146P         2024 08  5.4762  1.419604  0.647469  317.0163   53.4201   23.1172  20231204  15.0  4.0  146P/Shoemaker-LINEAR                                    MPC100284
0147P         2023 12  7.0844  3.158591  0.212926  348.1061   92.1162    2.2912  20231204  14.0  4.0  147P/Kushida-Muramatsu                                   MPC 75720
0148P         2022 06 13.7956  1.628219  0.550160    8.0479   89.1987    3.6584  20231204  16.2  4.0  148P/Anderson-LINEAR                                     MPEC 2023-HD1
0149P         2026 12 18.0010  2.786154  0.324346   30.4305  143.8671   34.2461  20231204   8.0  8.0  149P/Mueller                                             MPEC 2023-J29
0150P         2024 03 12.4515  1.745618  0.548909  246.1065  272.0595   18.5473  20231204  13.5  4.0  150P/LONEOS                                              MPEC 2023-W26
0151P         2029 08 15.8287  2.458331  0.573477  216.1187  143.1746    4.7285  20231204  10.0  6.0  151P/Helin                                               MPEC 2022-K19
0152P         2022 01 14.7076  3.099602  0.308377  164.2681   91.8150    9.8777  20231204  11.5  4.0  152P/Helin-Lawrence                                      MPEC 2023-W26
0153P         2002 03  4.5490  0.507468  0.989919   34.4538   93.6479   28.3368  20231204   9.0  4.0  153P/Ikeya-Zhang                                         MPC 46101
0154P         2024 06 11.4496  1.552962  0.676165   47.9586  343.0169   17.6339  20231204   2.5 12.0  154P/Brewington                                          MPEC 2022-K19
0155P         2019 11 15.7634  1.793067  0.727129   14.5223   97.1612    6.4062  20231204  10.0  4.8  155P/Shoemaker                                           MPEC 2022-YN2
0156P         2020 11 18.5224  1.332387  0.615184    0.4967   35.3420   17.2708  20231204  15.5  2.0  156P/Russell-LINEAR                                      MPEC 2023-J29
0157P         2022 09  9.8881  1.571867  0.556786  155.1038  287.5273   12.4201  20231204  15.0  4.0  157P/Tritton                                             MPEC 2023-HD1
0157P      b  2022 09  8.0864  1.551460  0.499859  287.1266  153.9238   12.4256  20231204  15.7  4.0  157P-B/Tritton                                           MPEC 2022-VC5
0158P         2022 03 25.9442  4.880318  0.112926  209.1943  128.5163    7.2866  20231204   9.0  4.0  158P/Kowal-LINEAR                                        MPEC 2023-W26
0159P         2018 05 24.6885  3.612255  0.382824    4.6054   54.9587   23.4823  20231204  10.0  4.0  159P/LONEOS                                              MPEC 2021-N06
0160P         2027 04  6.5349  1.791821  0.525698   12.7829  333.3780   15.6073  20231204  15.5  2.0  160P/LINEAR                                              MPEC 2022-K19
0161P         2026 11 28.2779  1.268491  0.835552   47.0535    1.5772   95.8256  20231204   8.5  6.0  161P/Hartley-IRAS                                        MPC 75721
0162P         2026 05 17.4894  1.288928  0.583164  357.2088   30.8879   27.5652  20231204  12.0  4.0  162P/SidingSpring                                        MPEC 2023-RF3
0163P         2026 11 24.0101  2.058334  0.453073  349.5650  102.0685   12.7177  20231204  14.5  4.0  163P/NEAT                                                MPEC 2021-S45
0164P         2025 05 27.3558  1.675964  0.541211  325.8734   88.3035   16.2716  20231204  11.0  4.0  164P/Christensen                                         MPEC 2021-F20
0165P         2000 05 26.9697  6.813964  0.617696  125.7596    0.8182   15.8977  20231204  11.5  2.0  165P/LINEAR                                              MPC 75721
0166P         2002 06  9.6617  8.507775  0.384462  321.6823   64.4354   15.3787  20231204   5.5  4.0  166P/NEAT                                                MPC 75722
0167P         2001 04 21.5717 11.889719  0.268683  344.7573  295.7819   19.0913  20231204   9.5  2.0  167P/CINEOS                                              MPEC 2023-J29
0168P         2026 05 25.9015  1.357247  0.621611   15.0675  355.4240   21.6077  20231204  15.5  4.0  168P/Hergenrother                                        MPEC 2023-J29
0169P         2022 07  9.7338  0.603078  0.768330  218.0718  176.0969   11.2960  20231204  16.0  2.0  169P/NEAT                                                MPEC 2023-J95
0170P         2023 04 18.4767  2.922489  0.305980  225.2612  142.7798   10.1104  20231204  12.0  4.0  170P/Christensen                                         MPEC 2023-W26
0171P         2025 09 25.1020  1.767608  0.502497  347.0527  101.6970   21.9485  20231204  13.5  4.0  171P/Spahr                                               MPC102102
0172P         2025 11  3.6786  3.356729  0.204462  209.0985   30.8753   11.2253  20231204  13.0  4.0  172P/Yeung                                               MPEC 2023-W26
0173P         2021 12 16.5496  4.215930  0.261863   29.1668  100.3632   16.4898  20231204   7.5  4.0  173P/Mueller                                             MPEC 2023-N01
0174P         2015 04 25.5533  5.846651  0.456271  163.4142  173.2902    4.3434  20231204   9.4  2.0  174P/Echeclus                                            MPC 92985
0175P         2026 09  1.1406  2.264455  0.382144   75.1404  110.3557    4.9089  20231204  14.0  4.0  175P/Hergenrother                                        MPC114608
0176P         2022 11 20.2423  2.580200  0.192343   34.4608  345.6295    0.2314  20231204  15.1  2.0  176P/LINEAR                                              MPC 89015
0177P         2006 09  5.3336  1.106619  0.954855   60.5441  272.0123   31.0774  20231204  15.0  4.0  177P/Barnard                                             MPEC 2020-L06
0178P         2020 07 17.5845  1.879733  0.482559  297.9037  102.8069   11.0890  20231204  14.6  4.0  178P/Hug-Bell                                            MPEC 2021-F20
0179P         2022 05 31.3676  4.119247  0.305851  297.0682  115.5154   19.8950  20231204   2.5  8.0  179P/Jedicke                                             MPEC 2023-UR6
0180P         2023 07 12.1381  2.500771  0.353516   94.6555   84.5611   16.8605  20231204  11.0  4.0  180P/NEAT                                                MPEC 2023-RF3
0181P         2022 01  8.7434  1.161432  0.700438  336.2798   35.4182   17.4837  20231204  11.5  4.0  181P/Shoemaker-Levy                                      MPC 89012
0182P         2022 05 12.3184  0.992699  0.663451   54.2115   72.4484   16.2313  20231204  18.0  4.0  182P/LONEOS                                              MPEC 2014-J10
0183P         2027 10 10.8449  4.192118  0.104381  165.5148    3.9235   18.8545  20231204  12.5  2.0  183P/Korlevic-Juric                                      MPEC 2023-A50
0184P         2020 10 26.2917  1.707030  0.550626  186.5499  173.2755    4.5735  20231204  13.5  4.0  184P/Lovas                                               MPEC 2020-W26
0185P         2023 07 12.8966  0.930348  0.699723  181.8894  214.1143   14.0146  20231204  15.0  4.0  185P/Petriew                                             MPEC 2023-W26
0186P         2018 12 28.1733  4.249224  0.124245  269.1821  326.1873   28.6306  20231204   7.5  4.0  186P/Garradd                                             MPEC 2022-X67
0187P         2028 02  5.6449  3.862261  0.153340  131.1765  109.8602   13.6444  20231204   9.0  4.0  187P/LINEAR                                              MPEC 2020-SI8
0188P         2026 04 12.8892  2.547183  0.416946   26.7151  358.9480   10.5242  20231204  11.5  4.0  188P/LINEAR-Mueller                                      MPEC 2023-J29
0189P         2022 08 28.8381  1.209965  0.589020   16.2902  281.6781   20.0834  20231204  19.0  4.0  189P/NEAT                                                MPEC 2022-QD9
0190P         2024 12 24.0698  2.019930  0.522261   50.4269  335.5658    2.1744  20231204  13.0  4.0  190P/Mueller                                             MPEC 2020-K19
0191P         2021 03 20.5694  2.234980  0.385819  284.2094   98.1998    8.8390  20231204  13.0  4.0  191P/McNaught                                            MPEC 2022-X67
0192P         2024 05 24.3637  1.464530  0.773333  313.0400   51.6555   24.5850  20231204  15.0  4.0  192P/Shoemaker-Levy                                      MPC 75724
0193P         2021 08 24.9983  2.170572  0.393317    8.1316  335.1849   10.6856  20231204  14.0  4.0  193P/LINEAR-NEAT                                         MPEC 2022-Y15
0194P         2024 02  4.2155  1.799579  0.563264  128.5585  349.5258   11.8061  20231204  16.0  4.0  194P/LINEAR                                              MPEC 2023-W26
0195P         2025 07 28.9530  4.450548  0.314966  249.6947  243.1046   36.3979  20231204   8.5  4.0  195P/Hill                                                MPEC 2023-W26
0196P         2022 10 29.3425  2.175848  0.427993   12.0663   24.1128   19.3016  20231204  13.5  4.0  196P/Tichy                                               MPEC 2022-YN2
0197P         2022 12  7.8537  1.064081  0.629517  188.8887   66.3140   25.5515  20231204  16.5  2.0  197P/LINEAR                                              MPEC 2023-UR6
0198P         2025 10  9.6691  1.996351  0.444680   69.2514  358.2183    1.3386  20231204   9.0  4.0  198P/ODAS                                                NK   1596
